[{"OBJECT_NAME":"STARLINK-4687","OBJECT_ID":"2022-111M","EPOCH":"2026-03-09T21:00:21.609504","MEAN_MOTION":15.08832094,"ECCENTRICITY":0.00012401,"INCLINATION":53.217,"RA_OF_ASC_NODE":273.326,"ARG_OF_PERICENTER":81.8434,"MEAN_ANOMALY":278.2699,"EPHEMERIS_TYPE":0,"CLASSIFICATION_TYPE":"U","NORAD_CAT_ID":53784,"ELEMENT_SET_NO":999,"REV_AT_EPOCH":19372,"BSTAR":2.9043371e-5,"MEAN_MOTION_DOT":1.74e-6,"MEAN_MOTION_DDOT":0},{"OBJECT_NAME":"YUNYAO-1 46","OBJECT_ID":"2025-059D","EPOCH":"2026-03-09T22:34:36.342624","MEAN_MOTION":15.10325082,"ECCENTRICITY":0.00132847,"INCLINATION":97.6091,"RA_OF_ASC_NODE":250.9055,"ARG_OF_PERICENTER":123.8801,"MEAN_ANOMALY":236.3694,"EPHEMERIS_TYPE":0,"CLASSIFICATION_TYPE":"U","NORAD_CAT_ID":63347,"ELEMENT_SET_NO":999,"REV_AT_EPOCH":5331,"BSTAR":0.0002771923,"MEAN_MOTION_DOT":4.488e-5,"MEAN_MOTION_DDOT":0}]
